CCSDS_OMM_VERS = 2.0
CREATION_DATE  = 
ORIGINATOR     = 

OBJECT_NAME    = ARIANE 40 R/B
OBJECT_ID      = 1990-005H
CENTER_NAME    = EARTH
REF_FRAME      = TEME
TIME_SYSTEM    = UTC
MEAN_ELEMENT_THEORY = SGP/SGP4

EPOCH          = 2025-11-27T22:28:59.458656
MEAN_MOTION    = 14.39781431
ECCENTRICITY   = .00108368
INCLINATION    = 98.3263
RA_OF_ASC_NODE = 30.5318
ARG_OF_PERICENTER = 146.3128
MEAN_ANOMALY   = 213.8751

EPHEMERIS_TYPE = 0
CLASSIFICATION_TYPE = U
NORAD_CAT_ID   = 20443
ELEMENT_SET_NO = 999
REV_AT_EPOCH   = 87816
BSTAR          = .13696861E-3
MEAN_MOTION_DOT = .387E-5
MEAN_MOTION_DDOT = 0

CCSDS_OMM_VERS = 2.0
CREATION_DATE  = 
ORIGINATOR     = 

OBJECT_NAME    = DELTA 2 R/B(1)
OBJECT_ID      = 1990-008B
CENTER_NAME    = EARTH
REF_FRAME      = TEME
TIME_SYSTEM    = UTC
MEAN_ELEMENT_THEORY = SGP/SGP4

EPOCH          = 2025-11-27T16:32:14.632800
MEAN_MOTION    = 15.43700532
ECCENTRICITY   = .01137278
INCLINATION    = 35.6051
RA_OF_ASC_NODE = 117.6077
ARG_OF_PERICENTER = 40.7501
MEAN_ANOMALY   = 320.1672

EPHEMERIS_TYPE = 0
CLASSIFICATION_TYPE = U
NORAD_CAT_ID   = 20453
ELEMENT_SET_NO = 999
REV_AT_EPOCH   = 91030
BSTAR          = .61353313E-3
MEAN_MOTION_DOT = .36519E-3
MEAN_MOTION_DDOT = 0

CCSDS_OMM_VERS = 2.0
CREATION_DATE  = 
ORIGINATOR     = 

OBJECT_NAME    = COSMOS 2058
OBJECT_ID      = 1990-010A
CENTER_NAME    = EARTH
REF_FRAME      = TEME
TIME_SYSTEM    = UTC
MEAN_ELEMENT_THEORY = SGP/SGP4

EPOCH          = 2025-11-27T20:26:05.686944
MEAN_MOTION    = 15.10271670
ECCENTRICITY   = .00091082
INCLINATION    = 82.4630
RA_OF_ASC_NODE = 147.6775
ARG_OF_PERICENTER = 334.4345
MEAN_ANOMALY   = 25.6433

EPHEMERIS_TYPE = 0
CLASSIFICATION_TYPE = U
NORAD_CAT_ID   = 20465
ELEMENT_SET_NO = 999
REV_AT_EPOCH   = 92686
BSTAR          = .28558508E-3
MEAN_MOTION_DOT = .4705E-4
MEAN_MOTION_DDOT = 0

CCSDS_OMM_VERS = 2.0
CREATION_DATE  = 
ORIGINATOR     = 

OBJECT_NAME    = SL-14 R/B
OBJECT_ID      = 1990-010B
CENTER_NAME    = EARTH
REF_FRAME      = TEME
TIME_SYSTEM    = UTC
MEAN_ELEMENT_THEORY = SGP/SGP4

EPOCH          = 2025-11-27T15:16:14.600640
MEAN_MOTION    = 14.83450138
ECCENTRICITY   = .00182787
INCLINATION    = 82.5029
RA_OF_ASC_NODE = 3.2326
ARG_OF_PERICENTER = 276.7376
MEAN_ANOMALY   = 83.1759

EPHEMERIS_TYPE = 0
CLASSIFICATION_TYPE = U
NORAD_CAT_ID   = 20466
ELEMENT_SET_NO = 999
REV_AT_EPOCH   = 91335
BSTAR          = .5906423E-4
MEAN_MOTION_DOT = .51E-5
MEAN_MOTION_DDOT = 0

CCSDS_OMM_VERS = 2.0
CREATION_DATE  = 
ORIGINATOR     = 

OBJECT_NAME    = SL-14 R/B
OBJECT_ID      = 1990-018B
CENTER_NAME    = EARTH
REF_FRAME      = TEME
TIME_SYSTEM    = UTC
MEAN_ELEMENT_THEORY = SGP/SGP4

EPOCH          = 2025-11-27T16:35:06.530784
MEAN_MOTION    = 14.82022798
ECCENTRICITY   = .00179042
INCLINATION    = 82.5199
RA_OF_ASC_NODE = 318.4317
ARG_OF_PERICENTER = 69.6737
MEAN_ANOMALY   = 290.6399

EPHEMERIS_TYPE = 0
CLASSIFICATION_TYPE = U
NORAD_CAT_ID   = 20511
ELEMENT_SET_NO = 999
REV_AT_EPOCH   = 90747
BSTAR          = .66094079E-4
MEAN_MOTION_DOT = .549E-5
MEAN_MOTION_DDOT = 0

CCSDS_OMM_VERS = 2.0
CREATION_DATE  = 
ORIGINATOR     = 

OBJECT_NAME    = HST
OBJECT_ID      = 1990-037B
CENTER_NAME    = EARTH
REF_FRAME      = TEME
TIME_SYSTEM    = UTC
MEAN_ELEMENT_THEORY = SGP/SGP4

EPOCH          = 2025-11-27T20:01:19.227648
MEAN_MOTION    = 15.27740343
ECCENTRICITY   = .00020896
INCLINATION    = 28.4701
RA_OF_ASC_NODE = 13.9170
ARG_OF_PERICENTER = 80.7798
MEAN_ANOMALY   = 279.3033

EPHEMERIS_TYPE = 0
CLASSIFICATION_TYPE = U
NORAD_CAT_ID   = 20580
ELEMENT_SET_NO = 999
REV_AT_EPOCH   = 75771
BSTAR          = .27468298E-3
MEAN_MOTION_DOT = .7886E-4
MEAN_MOTION_DDOT = 0

CCSDS_OMM_VERS = 2.0
CREATION_DATE  = 
ORIGINATOR     = 

OBJECT_NAME    = SL-16 R/B
OBJECT_ID      = 1990-046B
CENTER_NAME    = EARTH
REF_FRAME      = TEME
TIME_SYSTEM    = UTC
MEAN_ELEMENT_THEORY = SGP/SGP4

EPOCH          = 2025-11-27T21:36:41.690592
MEAN_MOTION    = 14.14993677
ECCENTRICITY   = .00121513
INCLINATION    = 70.9966
RA_OF_ASC_NODE = 151.6851
ARG_OF_PERICENTER = 101.0934
MEAN_ANOMALY   = 259.1555

EPHEMERIS_TYPE = 0
CLASSIFICATION_TYPE = U
NORAD_CAT_ID   = 20625
ELEMENT_SET_NO = 999
REV_AT_EPOCH   = 83399
BSTAR          = .20169868E-3
MEAN_MOTION_DOT = .343E-5
MEAN_MOTION_DDOT = 0

CCSDS_OMM_VERS = 2.0
CREATION_DATE  = 
ORIGINATOR     = 

OBJECT_NAME    = COSMOS 2084
OBJECT_ID      = 1990-055A
CENTER_NAME    = EARTH
REF_FRAME      = TEME
TIME_SYSTEM    = UTC
MEAN_ELEMENT_THEORY = SGP/SGP4

EPOCH          = 2025-11-27T16:25:15.077856
MEAN_MOTION    = 15.04876427
ECCENTRICITY   = .00340347
INCLINATION    = 62.7913
RA_OF_ASC_NODE = 323.2875
ARG_OF_PERICENTER = 172.8331
MEAN_ANOMALY   = 187.3264

EPHEMERIS_TYPE = 0
CLASSIFICATION_TYPE = U
NORAD_CAT_ID   = 20663
ELEMENT_SET_NO = 999
REV_AT_EPOCH   = 92096
BSTAR          = .22838117E-3
MEAN_MOTION_DOT = .3081E-4
MEAN_MOTION_DDOT = 0

CCSDS_OMM_VERS = 2.0
CREATION_DATE  = 
ORIGINATOR     = 

OBJECT_NAME    = SL-6 R/B(2)
OBJECT_ID      = 1990-055D
CENTER_NAME    = EARTH
REF_FRAME      = TEME
TIME_SYSTEM    = UTC
MEAN_ELEMENT_THEORY = SGP/SGP4

EPOCH          = 2025-11-27T23:56:28.872096
MEAN_MOTION    = 15.02974592
ECCENTRICITY   = .00115043
INCLINATION    = 62.7829
RA_OF_ASC_NODE = 239.5025
ARG_OF_PERICENTER = 296.9065
MEAN_ANOMALY   = 63.0858

EPHEMERIS_TYPE = 0
CLASSIFICATION_TYPE = U
NORAD_CAT_ID   = 20666
ELEMENT_SET_NO = 999
REV_AT_EPOCH   = 92290
BSTAR          = .21243693E-3
MEAN_MOTION_DOT = .2677E-4
MEAN_MOTION_DDOT = 0

CCSDS_OMM_VERS = 2.0
CREATION_DATE  = 
ORIGINATOR     = 

OBJECT_NAME    = SL-8 R/B
OBJECT_ID      = 1990-078B
CENTER_NAME    = EARTH
REF_FRAME      = TEME
TIME_SYSTEM    = UTC
MEAN_ELEMENT_THEORY = SGP/SGP4

EPOCH          = 2025-11-27T23:30:43.521696
MEAN_MOTION    = 14.85016442
ECCENTRICITY   = .03767979
INCLINATION    = 82.9053
RA_OF_ASC_NODE = 342.5135
ARG_OF_PERICENTER = 355.4619
MEAN_ANOMALY   = 4.3207

EPHEMERIS_TYPE = 0
CLASSIFICATION_TYPE = U
NORAD_CAT_ID   = 20775
ELEMENT_SET_NO = 999
REV_AT_EPOCH   = 79418
BSTAR          = .82951036E-3
MEAN_MOTION_DOT = .26788E-3
MEAN_MOTION_DDOT = 0

CCSDS_OMM_VERS = 2.0
CREATION_DATE  = 
ORIGINATOR     = 

OBJECT_NAME    = SL-8 R/B
OBJECT_ID      = 1991-006B
CENTER_NAME    = EARTH
REF_FRAME      = TEME
TIME_SYSTEM    = UTC
MEAN_ELEMENT_THEORY = SGP/SGP4

EPOCH          = 2025-11-27T20:39:38.324736
MEAN_MOTION    = 13.77487551
ECCENTRICITY   = .00217736
INCLINATION    = 82.9430
RA_OF_ASC_NODE = 245.7793
ARG_OF_PERICENTER = 323.7078
MEAN_ANOMALY   = 100.4669

EPHEMERIS_TYPE = 0
CLASSIFICATION_TYPE = U
NORAD_CAT_ID   = 21088
ELEMENT_SET_NO = 999
REV_AT_EPOCH   = 75005
BSTAR          = .89759062E-4
MEAN_MOTION_DOT = .104E-5
MEAN_MOTION_DDOT = 0

CCSDS_OMM_VERS = 2.0
CREATION_DATE  = 
ORIGINATOR     = 

OBJECT_NAME    = OKEAN-3
OBJECT_ID      = 1991-039A
CENTER_NAME    = EARTH
REF_FRAME      = TEME
TIME_SYSTEM    = UTC
MEAN_ELEMENT_THEORY = SGP/SGP4

EPOCH          = 2025-11-27T18:42:37.978272
MEAN_MOTION    = 15.03969968
ECCENTRICITY   = .00137287
INCLINATION    = 82.5176
RA_OF_ASC_NODE = 75.5245
ARG_OF_PERICENTER = 320.9082
MEAN_ANOMALY   = 39.1151

EPHEMERIS_TYPE = 0
CLASSIFICATION_TYPE = U
NORAD_CAT_ID   = 21397
ELEMENT_SET_NO = 999
REV_AT_EPOCH   = 84971
BSTAR          = .31912006E-3
MEAN_MOTION_DOT = .4439E-4
MEAN_MOTION_DDOT = 0

