ARIANE 40 R/B           
1 20443U 90005H   25331.93679929  .00000387  00000+0  13697-3 0  9991
2 20443  98.3263  30.5318 0010836 146.3128 213.8751 14.39781431878167
DELTA 2 R/B(1)          
1 20453U 90008B   25331.68905825  .00036519  00000+0  61353-3 0  9992
2 20453  35.6051 117.6077 0113727  40.7501 320.1672 15.43700532910307
COSMOS 2058             
1 20465U 90010A   25331.85145471  .00004705  00000+0  28559-3 0  9993
2 20465  82.4630 147.6775 0009108 334.4345  25.6433 15.10271670926867
SL-14 R/B               
1 20466U 90010B   25331.63628010  .00000510  00000+0  59064-4 0  9991
2 20466  82.5029   3.2326 0018278 276.7376  83.1759 14.83450138913357
SL-14 R/B               
1 20511U 90018B   25331.69104781  .00000549  00000+0  66094-4 0  9993
2 20511  82.5199 318.4317 0017904  69.6737 290.6399 14.82022798907479
HST                     
1 20580U 90037B   25331.83425032  .00007886  00000+0  27468-3 0  9993
2 20580  28.4701  13.9170 0002089  80.7798 279.3033 15.27740343757718
SL-16 R/B               
1 20625U 90046B   25331.90048253  .00000343  00000+0  20170-3 0  9991
2 20625  70.9966 151.6851 0012151 101.0934 259.1555 14.14993677833994
COSMOS 2084             
1 20663U 90055A   25331.68420229  .00003081  00000+0  22838-3 0  9990
2 20663  62.7913 323.2875 0034034 172.8331 187.3264 15.04876427920967
SL-6 R/B(2)             
1 20666U 90055D   25331.99755639  .00002677  00000+0  21244-3 0  9993
2 20666  62.7829 239.5025 0011504 296.9065  63.0858 15.02974592922906
SL-8 R/B                
1 20775U 90078B   25331.97967039  .00026788  00000+0  82951-3 0  9997
2 20775  82.9053 342.5135 0376797 355.4619   4.3207 14.85016442794185
SL-8 R/B                
1 21088U 91006B   25331.86086024  .00000104  00000+0  89759-4 0  9999
2 21088  82.9430 245.7793 0021773 323.7078 100.4669 13.77487551750055
OKEAN-3                 
1 21397U 91039A   25331.77960623  .00004439  00000+0  31912-3 0  9996
2 21397  82.5176  75.5245 0013728 320.9082  39.1151 15.03969968849711
